FLOCK 3P-15             
1 42039U 17008CV  18006.13508014  .00001551  00000-0  67482-4 0  9994
2 42039  97.4716  71.8935 0006883 214.2238 145.8556 15.23753182 48603
FLOCK 3P-13             
1 42040U 17008CW  18005.73471065  .00001150  00000-0  50882-4 0  9997
2 42040  97.4722  71.5188 0006703 217.2027 142.8746 15.23694108 48531
FLOCK 3P-55             
1 42041U 17008CX  18006.10755475  .00001533  00000-0  66812-4 0  9995
2 42041  97.4719  71.9338 0006454 219.5335 140.5432 15.23724206 49439
FLOCK 3P-56             
1 42042U 17008CY  18005.93979608  .00002009  00000-0  85238-4 0  9994
2 42042  97.4711  71.8364 0006391 218.7872 141.2908 15.24270389 49207
FLOCK 3P-81             
1 42043U 17008CZ  18006.15256072  .00001058  00000-0  46849-4 0  9991
2 42043  97.4742  71.9875 0007841 196.6932 163.4048 15.23843645 48617
FLOCK 3P-87             
1 42044U 17008DA  18005.90092681  .00001225  00000-0  53905-4 0  9995
2 42044  97.4739  71.6943 0008073 194.8355 165.2646 15.23757550 48729
FLOCK 3P-29             
1 42045U 17008DB  18005.90265906  .00001722  00000-0  74543-4 0  9991
2 42045  97.4722  71.6143 0007826 191.1930 168.9134 15.23777355 48578
FLOCK 3P-82             
1 42046U 17008DC  18006.42187705  .00002156  00000-0  92085-4 0  9993
2 42046  97.4736  72.2316 0008093 193.6397 166.4623 15.23952562 48700
FLOCK 3P-78             
1 42047U 17008DD  18005.89979816  .00001568  00000-0  68101-4 0  9994
2 42047  97.4742  71.7079 0007960 194.6768 165.4239 15.23786678 48551
FLOCK 3P-74             
1 42048U 17008DE  18006.36963026  .00001754  00000-0  75933-4 0  9992
2 42048  97.4745  72.1633 0008296 194.1449 165.9556 15.23738970 48627
FLOCK 3P-31             
1 42049U 17008DF  18006.10852511  .00001810  00000-0  78222-4 0  9998
2 42049  97.4721  71.8011 0007908 191.8699 168.2353 15.23759440 48040
FLOCK 3P-83             
1 42050U 17008DG  18005.91256716  .00002587  00000-0  11059-3 0  9999
2 42050  97.4737  71.6870 0008095 196.4122 163.6854 15.23742046 49286
FLOCK 3P-72             
1 42051U 17008DH  18006.48394715  .00000623  00000-0  28988-4 0  9994
2 42051  97.4749  72.3241 0007822 192.9450 167.1587 15.23626762 46962
LEMUR-2-REDFERN-GOES    
1 42059U 98067LA  18006.15275566  .00017447  00000-0  16606-3 0  9997
2 42059  51.6367  92.8650 0006278 335.8233  24.2468 15.66911907 47732
LEMUR-2-TRUTNA          
1 42067U 98067LC  18005.80719998  .00043453  00000-0  24429-3 0  9997
2 42067  51.6404  85.2467 0005298 337.9962  22.0811 15.78768943 47638
LEMUR-2-AUSTINTACIOUS   
1 42068U 98067LD  18006.49678439  .00018159  00000-0  15818-3 0  9995
2 42068  51.6372  89.1602 0005905 329.7382  30.3273 15.69071565 47740
LEMUR-2-TRUTNAHD        
1 42069U 98067LE  18006.21604000  .00018427  00000-0  16959-3 0  9994
2 42069  51.6377  91.8110 0005632 334.6486  25.4234 15.67706006 47731
HAVELSAT                
1 42700U 98067LH  18006.49626741  .00014214  00000-0  15468-3 0  9996
2 42700  51.6381  96.6845 0005056   1.5057 358.5952 15.63714240 36662
SOMP 2                  
1 42701U 98067LJ  18006.54002755  .00013370  00000-0  14885-3 0  9990
2 42701  51.6377  96.9770 0005065   1.0899 359.0106 15.63189612 36652
COLUMBIA                
1 42702U 98067LK  18006.37223577  .00093421  00000-0  47769-3 0  9991
2 42702  51.6315  88.2612 0006476 349.8777  10.2094 15.80535222 36685
SGSAT                   
1 42703U 98067LL  18006.44156985  .00044517  00000-0  32813-3 0  9994
2 42703  51.6341  91.7578 0003304 315.1826  44.8905 15.72560461 36636
CXBN-2                  
1 42704U 98067LM  18006.54115231  .00014280  00000-0  15779-3 0  9991
2 42704  51.6383  96.9902 0002011 305.7822  54.2985 15.63322674 36585
ICECUBE                 
1 42705U 98067LN  18006.52189507  .00024656  00000-0  24084-3 0  9994
2 42705  51.6414  95.3964 0002415 312.7178  47.3614 15.66025237 36661
PHOENIX                 
1 42706U 98067LP  18006.52705161  .00014095  00000-0  15698-3 0  9992
2 42706  51.6381  96.8932 0001219 325.9223  34.1693 15.63131648 36576
X-CUBESAT               
1 42707U 98067LQ  18006.50536969  .00015430  00000-0  16714-3 0  9993
2 42707  51.6361  96.7271 0001474 323.8325  36.2570 15.63759951 36562
QBEE50-LTU-OC           
1 42708U 98067LR  18006.45828841  .00014624  00000-0  16067-3 0  9996
2 42708  51.6375  97.1698 0001447 324.8938  35.1961 15.63446205 36519
ALTAIR PATHFINDER       
1 42711U 98067LS  18006.54830402  .00008493  00000-0  10786-3 0  9995
2 42711  51.6380  99.2775 0003823 298.5517  61.5091 15.60324425 36207
SHARC                   
1 42712U 98067LT  18006.46264479  .00007203  00000-0  95496-4 0  9992
2 42712  51.6397 100.2286 0002062 308.6157  51.4651 15.59453959 36420
ZA-AEROSAT              
1 42713U 98067LU  18006.49912419  .00012043  00000-0  14074-3 0  9990
2 42713  51.6373  98.2022 0002179 292.8348  67.2416 15.62050894 36210
LINK                    
1 42714U 98067LV  18006.48474189  .00022651  00000-0  22142-3 0  9998
2 42714  51.6351  95.8279 0002597 299.7318  60.3419 15.66061200 36350
CSUNSAT 1               
1 42715U 98067LW  18006.49195272  .00012396  00000-0  14344-3 0  9993
2 42715  51.6385  98.1566 0003997 289.1673  70.8889 15.62272874 36214
UPSAT                   
1 42716U 98067LX  18006.49804675  .00018415  00000-0  18760-3 0  9992
2 42716  51.6373  95.9409 0003598 359.7347   0.3646 15.65170756 36377
SPACECUBE               
1 42717U 98067LY  18006.54135800  .00014152  00000-0  15629-3 0  9991
2 42717  51.6372  96.9801 0003651   1.8203 358.2804 15.63344449 35606
HOOPOE                  
1 42718U 98067LZ  18006.48645334  .00016460  00000-0  17422-3 0  9990
2 42718  51.6377  96.6141 0003604 358.5305   1.5679 15.64291940 35605
CHALLENGER              
1 42721U 98067MA  18006.53511705  .00026075  00000-0  23848-3 0  9996
2 42721  51.6359  94.6630 0006115 340.9341  19.1425 15.67612922 35339
NJUST-1                 
1 42722U 98067MB  18006.54684181  .00010485  00000-0  12577-3 0  9992
2 42722  51.6382  98.5213 0006318 345.8364  14.2452 15.61525113 35289
UNSW-ECO                
1 42723U 98067MC  18006.39349073  .00017688  00000-0  18653-3 0  9997
2 42723  51.6387  97.5016 0005962 341.9396  18.1386 15.64315330 35269
DUTHSAT                 
1 42724U 98067MD  18006.50853220  .00026042  00000-0  24392-3 0  9996
2 42724  51.6366  95.2527 0005381 342.4083  17.6726 15.67027416 35229
LILACSAT-1              
1 42725U 98067ME  18006.50432412  .00013165  00000-0  15049-3 0  9994
2 42725  51.6381  98.2393 0005380 346.5819  13.5032 15.62520290 35185
NSIGHT-1                
1 42726U 98067MF  18006.51899790  .00005924  00000-0  81397-4 0  9996
2 42726  51.6397 100.6004 0005785 352.5858   7.5049 15.58875513 35164
SNUSAT-1                
1 42727U 98067MG  18006.50714785  .00013601  00000-0  15557-3 0  9991
2 42727  51.6366  98.2350 0006937 309.8759  50.1625 15.62460611 35159
QBITO                   
1 42728U 98067MH  18006.50939227  .00014998  00000-0  16573-3 0  9991
2 42728  51.6396  97.5449 0003057 350.0468  10.0465 15.63273795 35006
AALTO-2                 
1 42729U 98067MJ  18006.50615705  .00015293  00000-0  16821-3 0  9999
2 42729  51.6381  97.5042 0003056 349.4365  10.6564 15.63374206 35013
SUSAT                   
1 42730U 98067MK  18006.47006127  .00013990  00000-0  15731-3 0  9990
2 42730  51.6377  98.0059 0003131 347.4585  12.6331 15.62890337 34997
I-INSPIRE II            
1 42731U 98067ML  18006.49925848  .00019065  00000-0  19811-3 0  9995
2 42731  51.6368  96.6788 0006241 297.0056  63.0302 15.64627539 35060
POLYITAN-2-SAU          
1 42732U 98067MM  18006.49250091  .00013385  00000-0  14688-3 0  9993
2 42732  51.6375  97.3918 0006287 295.6339  64.4006 15.63553768 35056
SNUSAT-1B               
1 42733U 98067MN  18006.47126458  .00014095  00000-0  15842-3 0  9993
2 42733  51.6377  98.0051 0006331 298.1716  61.8639 15.62882748 35046
EXALTA-1                
1 42734U 98067MP  18006.50497346  .00019170  00000-0  19907-3 0  9990
2 42734  51.6364  96.7183 0007493 320.1172  39.9271 15.64631516 35018
AOXIANG-1               
1 42735U 98067MQ  18006.53545655  .00010905  00000-0  12977-3 0  9998
2 42735  51.6375  98.4362 0006828 342.6092  17.4667 15.61682453 36418
BEEAGLESAT              
1 42736U 98067MR  18006.50453312  .00013458  00000-0  15496-3 0  9999
2 42736  51.6372  98.2283 0006702 340.9393  19.1349 15.62300583 35105
ATLANTIS                
1 42737U 98067MS  18005.71403008  .00066947  00000-0  41926-3 0  9997
2 42737  51.6304  94.3686 0006965 332.7796  27.2838 15.76143041 34978
LEMUR-2-ANGELA          
1 42752U 17019B   18006.53918864  .00001220  00000-0  56098-4 0  9994
2 42752  51.6407 145.8322 0010208 352.9737   7.1098 15.28476022 32385
LEMUR-2-JENNYBARNA      
1 42753U 17019C   18006.51344685  .00003003  00000-0  11800-3 0  9999
2 42753  51.6408 145.6678 0010051 352.5038   7.5790 15.28868655 32330
LEMUR-2-ROBMOORE        
1 42754U 17019D   18006.48403086  .00000394  00000-0  26806-4 0  9990
2 42754  51.6410 146.2091 0010292 355.5034   4.5852 15.28399615 32359
LEMUR-2-SPIROVISION     
1 42755U 17019E   18006.52657351  .00002828  00000-0  11220-3 0  9999
2 42755  51.6393 145.7457 0010025 354.9245   5.1631 15.28764712 32256
UCLSAT                  
1 42765U 17036A   18005.91041505  .00001108  00000-0  52439-4 0  9997
2 42765  97.4246  68.2118 0010381 287.4253  72.5848 15.21410778 30629
LITUANICASAT-2          
1 42768U 17036D   18005.90269894  .00001770  00000-0  83530-4 0  9993
2 42768  97.4254  67.9266 0014462 274.6751  85.2832 15.20682077 29899
LEMUR-2-SHAINAJOHL      
1 42771U 17036G   18005.76270801  .00001335  00000-0  63967-4 0  9990
2 42771  97.4250  67.8041 0013579 274.6692  85.2993 15.20586885 29811
LEMUR-2-XUENITERENCE    
1 42772U 17036H   18006.41501693  .00001340  00000-0  64146-4 0  9996
2 42772  97.4248  68.4590 0013222 271.8943  88.0778 15.20631120 29914
